{
  "links" : {
    "next" : "https://api.nasa.gov/neo/rest/v1/feed?start_date=2002-03-23&end_date=2002-03-23&detailed=true&api_key=t0TVs3DtDT2H8Oy2Zy8m2eVrNsAVKAexjcZXUckd",
    "prev" : "https://api.nasa.gov/neo/rest/v1/feed?start_date=2002-03-21&end_date=2002-03-21&detailed=true&api_key=t0TVs3DtDT2H8Oy2Zy8m2eVrNsAVKAexjcZXUckd",
    "self" : "https://api.nasa.gov/neo/rest/v1/feed?start_date=2002-03-22&end_date=2002-03-22&detailed=true&api_key=t0TVs3DtDT2H8Oy2Zy8m2eVrNsAVKAexjcZXUckd"
  },
  "element_count" : 5,
  "near_earth_objects" : {
    "2002-03-22" : [ {
      "links" : {
        "self" : "https://api.nasa.gov/neo/rest/v1/neo/3072196?api_key=t0TVs3DtDT2H8Oy2Zy8m2eVrNsAVKAexjcZXUckd"
      },
      "neo_reference_id" : "3072196",
      "name" : "(2001 ED18)",
      "nasa_jpl_url" : "http://ssd.jpl.nasa.gov/sbdb.cgi?sstr=3072196",
      "absolute_magnitude_h" : 24.5,
      "estimated_diameter" : {
        "kilometers" : {
          "estimated_diameter_min" : 0.0334622374,
          "estimated_diameter_max" : 0.0748238376
        },
        "meters" : {
          "estimated_diameter_min" : 33.4622374455,
          "estimated_diameter_max" : 74.8238376074
        },
        "miles" : {
          "estimated_diameter_min" : 0.0207924639,
          "estimated_diameter_max" : 0.0464933628
        },
        "feet" : {
          "estimated_diameter_min" : 109.7842471007,
          "estimated_diameter_max" : 245.4850393757
        }
      },
      "is_potentially_hazardous_asteroid" : false,
      "close_approach_data" : [ {
        "close_approach_date" : "2002-03-22",
        "epoch_date_close_approach" : 1016784000000,
        "relative_velocity" : {
          "kilometers_per_second" : "7.2972643899",
          "kilometers_per_hour" : "26270.1518035272",
          "miles_per_hour" : "16323.2507136972"
        },
        "miss_distance" : {
          "astronomical" : "0.0792610177",
          "lunar" : "30.8325366974",
          "kilometers" : "11857280",
          "miles" : "7367772"
        },
        "orbiting_body" : "Earth"
      } ],
      "orbital_data" : {
        "orbit_id" : "16",
        "orbit_determination_date" : "2017-04-06 09:16:29",
        "orbit_uncertainty" : "6",
        "minimum_orbit_intersection" : ".025664",
        "jupiter_tisserand_invariant" : "6.113",
        "epoch_osculation" : "2458000.5",
        "eccentricity" : ".05733700568269794",
        "semi_major_axis" : ".989173520926894",
        "inclination" : "11.63229032649051",
        "ascending_node_longitude" : "357.789502255069",
        "orbital_period" : "359.3413129382192",
        "perihelion_distance" : ".9324572731363344",
        "perihelion_argument" : "306.666110975172",
        "aphelion_distance" : "1.045889768717454",
        "perihelion_time" : "2457858.759930849771",
        "mean_anomaly" : "141.9998843908474",
        "mean_motion" : "1.001833040171181",
        "equinox" : "J2000"
      }
    }, {
      "links" : {
        "self" : "https://api.nasa.gov/neo/rest/v1/neo/3634614?api_key=t0TVs3DtDT2H8Oy2Zy8m2eVrNsAVKAexjcZXUckd"
      },
      "neo_reference_id" : "3634614",
      "name" : "(2013 GT66)",
      "nasa_jpl_url" : "http://ssd.jpl.nasa.gov/sbdb.cgi?sstr=3634614",
      "absolute_magnitude_h" : 25.2,
      "estimated_diameter" : {
        "kilometers" : {
          "estimated_diameter_min" : 0.0242412481,
          "estimated_diameter_max" : 0.0542050786
        },
        "meters" : {
          "estimated_diameter_min" : 24.2412481101,
          "estimated_diameter_max" : 54.2050786336
        },
        "miles" : {
          "estimated_diameter_min" : 0.0150628086,
          "estimated_diameter_max" : 0.0336814639
        },
        "feet" : {
          "estimated_diameter_min" : 79.5316564495,
          "estimated_diameter_max" : 177.8381901842
        }
      },
      "is_potentially_hazardous_asteroid" : false,
      "close_approach_data" : [ {
        "close_approach_date" : "2002-03-22",
        "epoch_date_close_approach" : 1016784000000,
        "relative_velocity" : {
          "kilometers_per_second" : "9.0077180216",
          "kilometers_per_hour" : "32427.7848777243",
          "miles_per_hour" : "20149.3644424948"
        },
        "miss_distance" : {
          "astronomical" : "0.1869977401",
          "lunar" : "72.7421188354",
          "kilometers" : "27974464",
          "miles" : "17382526"
        },
        "orbiting_body" : "Earth"
      } ],
      "orbital_data" : {
        "orbit_id" : "5",
        "orbit_determination_date" : "2017-04-06 08:46:10",
        "orbit_uncertainty" : "6",
        "minimum_orbit_intersection" : ".0131896",
        "jupiter_tisserand_invariant" : "6.860",
        "epoch_osculation" : "2458000.5",
        "eccentricity" : ".323126436637329",
        "semi_major_axis" : ".8503284054878545",
        "inclination" : "14.59722741209398",
        "ascending_node_longitude" : "21.33642537752565",
        "orbital_period" : "286.4035900113669",
        "perihelion_distance" : ".5755648178510623",
        "perihelion_argument" : "321.8694958023499",
        "aphelion_distance" : "1.125091993124647",
        "perihelion_time" : "2457916.904395061065",
        "mean_anomaly" : "105.0769572295592",
        "mean_motion" : "1.256967484191494",
        "equinox" : "J2000"
      }
    } ]
  }
}